{"type":"FeatureCollection","features":[{"type":"Feature","geometry":{"type":"Point","coordinates":[10.39425,63.39915]},"properties":{"cat":"toll","type":"Bomstasjon","name":"Kroppan bru (Nordg\u00e5ende), M-snitt","vendor":null,"src":"nvdb"}},{"type":"Feature","geometry":{"type":"Point","coordinates":[10.39352,63.39818]},"properties":{"cat":"toll","type":"Bomstasjon","name":"Kroppan bru (S\u00f8rg\u00e5ende), M-snitt","vendor":null,"src":"nvdb"}},{"type":"Feature","geometry":{"type":"Point","coordinates":[10.56658,63.43057]},"properties":{"cat":"toll","type":"Bomstasjon","name":"V\u00e6re (Gml. E6), N-snitt","vendor":null,"src":"nvdb"}},{"type":"Feature","geometry":{"type":"Point","coordinates":[10.39241,63.38156]},"properties":{"cat":"toll","type":"Bomstasjon","name":"Nedre Leirfoss (Fossestuvegen), M-snitt","vendor":null,"src":"nvdb"}},{"type":"Feature","geometry":{"type":"Point","coordinates":[10.30664,63.32443]},"properties":{"cat":"toll","type":"Bomstasjon","name":"Klett - Rv.707, S-snitt","vendor":null,"src":"nvdb"}},{"type":"Feature","geometry":{"type":"Point","coordinates":[10.19535,63.44961]},"properties":{"cat":"toll","type":"Bomstasjon","name":"Ferje Flakk-R\u00f8rvik","vendor":null,"src":"nvdb"}},{"type":"Feature","geometry":{"type":"Point","coordinates":[10.3676,63.32637]},"properties":{"cat":"toll","type":"Bomstasjon","name":"Fv 704 Torg\u00e5rdsletta. K-snitt","vendor":null,"src":"nvdb"}},{"type":"Feature","geometry":{"type":"Point","coordinates":[10.43741,63.34899]},"properties":{"cat":"toll","type":"Bomstasjon","name":"Tillerbrua, K-snitt","vendor":null,"src":"nvdb"}},{"type":"Feature","geometry":{"type":"Point","coordinates":[10.37943,63.37183]},"properties":{"cat":"toll","type":"Bomstasjon","name":"Tonstad, T-snitt","vendor":null,"src":"nvdb"}},{"type":"Feature","geometry":{"type":"Point","coordinates":[10.35891,63.40544]},"properties":{"cat":"toll","type":"Bomstasjon","name":"By\u00e5sveien, B-snitt","vendor":null,"src":"nvdb"}},{"type":"Feature","geometry":{"type":"Point","coordinates":[10.34658,63.40651]},"properties":{"cat":"toll","type":"Bomstasjon","name":"Gamle Oslovei, B-snitt","vendor":null,"src":"nvdb"}},{"type":"Feature","geometry":{"type":"Point","coordinates":[10.40055,63.40241]},"properties":{"cat":"toll","type":"Bomstasjon","name":"Bratsbergveien, O-snitt","vendor":null,"src":"nvdb"}},{"type":"Feature","geometry":{"type":"Point","coordinates":[10.39716,63.40629]},"properties":{"cat":"toll","type":"Bomstasjon","name":"Tempeveien, O-snitt","vendor":null,"src":"nvdb"}},{"type":"Feature","geometry":{"type":"Point","coordinates":[10.38296,63.40548]},"properties":{"cat":"toll","type":"Bomstasjon","name":"B\u00f8ckmans veg, B-snitt","vendor":null,"src":"nvdb"}},{"type":"Feature","geometry":{"type":"Point","coordinates":[10.42068,63.40879]},"properties":{"cat":"toll","type":"Bomstasjon","name":"Thorbj\u00f8rn Bratts veg, O-snitt","vendor":null,"src":"nvdb"}},{"type":"Feature","geometry":{"type":"Point","coordinates":[10.44054,63.40929]},"properties":{"cat":"toll","type":"Bomstasjon","name":"Moholt, O-snitt","vendor":null,"src":"nvdb"}},{"type":"Feature","geometry":{"type":"Point","coordinates":[10.4621,63.42219]},"properties":{"cat":"toll","type":"Bomstasjon","name":"Tungasletta, O-snitt","vendor":null,"src":"nvdb"}},{"type":"Feature","geometry":{"type":"Point","coordinates":[10.47505,63.42681]},"properties":{"cat":"toll","type":"Bomstasjon","name":"Landbruksvegen, O-snitt","vendor":null,"src":"nvdb"}},{"type":"Feature","geometry":{"type":"Point","coordinates":[10.47933,63.43138]},"properties":{"cat":"toll","type":"Bomstasjon","name":"Rv 706 Leangensletta, O-snitt","vendor":null,"src":"nvdb"}},{"type":"Feature","geometry":{"type":"Point","coordinates":[10.47602,63.43018]},"properties":{"cat":"toll","type":"Bomstasjon","name":"Haakon VII s gt , O-snitt","vendor":null,"src":"nvdb"}},{"type":"Feature","geometry":{"type":"Point","coordinates":[10.44005,63.40885]},"properties":{"cat":"toll","type":"Bomstasjon","name":"Moholt, O-snitt, rampe 1","vendor":null,"src":"nvdb"}},{"type":"Feature","geometry":{"type":"Point","coordinates":[10.43988,63.40873]},"properties":{"cat":"toll","type":"Bomstasjon","name":"Moholt, O-snitt, rampe 2","vendor":null,"src":"nvdb"}},{"type":"Feature","geometry":{"type":"Point","coordinates":[10.37988,63.3721]},"properties":{"cat":"toll","type":"Bomstasjon","name":"Tonstad, T-snitt, rampe 1","vendor":null,"src":"nvdb"}},{"type":"Feature","geometry":{"type":"Point","coordinates":[10.37687,63.37115]},"properties":{"cat":"toll","type":"Bomstasjon","name":"Tonstad, T-snitt, rampe 3","vendor":null,"src":"nvdb"}},{"type":"Feature","geometry":{"type":"Point","coordinates":[10.34129,63.32609]},"properties":{"cat":"toll","type":"Bomstasjon","name":"Klett - E6, S-snitt","vendor":null,"src":"nvdb"}},{"type":"Feature","geometry":{"type":"Point","coordinates":[10.31115,63.32342]},"properties":{"cat":"toll","type":"Bomstasjon","name":"Klett R\u00f8ddeveien, S-snitt","vendor":null,"src":"nvdb"}},{"type":"Feature","geometry":{"type":"Point","coordinates":[10.38659,63.40524]},"properties":{"cat":"toll","type":"Bomstasjon","name":"Nydalsbrua Nord (Oslovn)","vendor":null,"src":"nvdb"}},{"type":"Feature","geometry":{"type":"Point","coordinates":[10.38482,63.39372]},"properties":{"cat":"toll","type":"Bomstasjon","name":"Nydalsbrua S\u00f8r (Oslovn)","vendor":null,"src":"nvdb"}},{"type":"Feature","geometry":{"type":"Point","coordinates":[10.55404,63.42229]},"properties":{"cat":"toll","type":"Bomstasjon","name":"Ranheim","vendor":null,"src":"nvdb"}},{"type":"Feature","geometry":{"type":"Point","coordinates":[10.37154,63.43151]},"properties":{"cat":"camera","type":"Kamera","name":"Kamera","vendor":"Pelco","src":"nvdb"}},{"type":"Feature","geometry":{"type":"Point","coordinates":[10.37304,63.43139]},"properties":{"cat":"camera","type":"Kamera","name":"Kamera","vendor":"Bosch","src":"nvdb"}},{"type":"Feature","geometry":{"type":"Point","coordinates":[10.37402,63.43127]},"properties":{"cat":"camera","type":"Kamera","name":"Kamera","vendor":"Bosch","src":"nvdb"}},{"type":"Feature","geometry":{"type":"Point","coordinates":[10.3754,63.43119]},"properties":{"cat":"camera","type":"Kamera","name":"Kamera","vendor":"Bosch","src":"nvdb"}},{"type":"Feature","geometry":{"type":"Point","coordinates":[10.37657,63.43125]},"properties":{"cat":"camera","type":"Kamera","name":"Kamera","vendor":"Bosch","src":"nvdb"}},{"type":"Feature","geometry":{"type":"Point","coordinates":[10.37768,63.43145]},"properties":{"cat":"camera","type":"Kamera","name":"Kamera","vendor":"Bosch","src":"nvdb"}},{"type":"Feature","geometry":{"type":"Point","coordinates":[10.37905,63.43185]},"properties":{"cat":"camera","type":"Kamera","name":"Kamera","vendor":"Bosch","src":"nvdb"}},{"type":"Feature","geometry":{"type":"Point","coordinates":[10.38019,63.43217]},"properties":{"cat":"camera","type":"Kamera","name":"Kamera","vendor":"Bosch","src":"nvdb"}},{"type":"Feature","geometry":{"type":"Point","coordinates":[10.3809,63.43234]},"properties":{"cat":"camera","type":"Kamera","name":"Kamera","vendor":"Bosch","src":"nvdb"}},{"type":"Feature","geometry":{"type":"Point","coordinates":[10.38311,63.43287]},"properties":{"cat":"camera","type":"Kamera","name":"Kamera","vendor":"Bosch","src":"nvdb"}},{"type":"Feature","geometry":{"type":"Point","coordinates":[10.40834,63.43809]},"properties":{"cat":"camera","type":"Kamera","name":"Kamera","vendor":"Axis Communications AB","src":"nvdb"}},{"type":"Feature","geometry":{"type":"Point","coordinates":[10.4108,63.43766]},"properties":{"cat":"camera","type":"Kamera","name":"Kamera","vendor":"Axis Communications AB","src":"nvdb"}},{"type":"Feature","geometry":{"type":"Point","coordinates":[10.404,63.43302]},"properties":{"cat":"camera","type":"Kamera","name":"Kamera","vendor":"Flir","src":"nvdb"}},{"type":"Feature","geometry":{"type":"Point","coordinates":[10.39609,63.41928]},"properties":{"cat":"camera","type":"Kamera","name":"Kamera","vendor":"Axis Communications AB","src":"nvdb"}},{"type":"Feature","geometry":{"type":"Point","coordinates":[10.42995,63.40771]},"properties":{"cat":"camera","type":"Kamera","name":"Kamera","vendor":"Axis Communications AB","src":"nvdb"}},{"type":"Feature","geometry":{"type":"Point","coordinates":[10.37487,63.37859]},"properties":{"cat":"camera","type":"Kamera","name":"Kamera","vendor":"Bosch","src":"nvdb"}},{"type":"Feature","geometry":{"type":"Point","coordinates":[10.37487,63.37859]},"properties":{"cat":"camera","type":"Kamera","name":"Kamera","vendor":"Bosch","src":"nvdb"}},{"type":"Feature","geometry":{"type":"Point","coordinates":[10.37503,63.37811]},"properties":{"cat":"camera","type":"Kamera","name":"Kamera","vendor":"Axis Communications AB","src":"nvdb"}},{"type":"Feature","geometry":{"type":"Point","coordinates":[10.37503,63.37811]},"properties":{"cat":"camera","type":"Kamera","name":"Kamera","vendor":"Axis Communications AB","src":"nvdb"}},{"type":"Feature","geometry":{"type":"Point","coordinates":[10.37467,63.38168]},"properties":{"cat":"camera","type":"Kamera","name":"Kamera","vendor":"Axis Communications AB","src":"nvdb"}},{"type":"Feature","geometry":{"type":"Point","coordinates":[10.39701,63.43326]},"properties":{"cat":"camera","type":"Kamera","name":"Kamera","vendor":"Axis Communications AB","src":"nvdb"}},{"type":"Feature","geometry":{"type":"Point","coordinates":[10.41537,63.405]},"properties":{"cat":"camera","type":"Kamera","name":"Kamera","vendor":"Axis Communications AB","src":"nvdb"}},{"type":"Feature","geometry":{"type":"Point","coordinates":[10.50972,63.42728]},"properties":{"cat":"camera","type":"Kamera","name":"Kamera","vendor":"Axis Communications AB","src":"nvdb"}},{"type":"Feature","geometry":{"type":"Point","coordinates":[10.3969,63.40073]},"properties":{"cat":"camera","type":"Kamera","name":"Kamera","vendor":"Dahua Technology","src":"nvdb"}},{"type":"Feature","geometry":{"type":"Point","coordinates":[10.19536,63.44961]},"properties":{"cat":"camera","type":"Kamera","name":"Kamera","vendor":"Axis Communications AB","src":"nvdb"}},{"type":"Feature","geometry":{"type":"Point","coordinates":[10.41821,63.43594]},"properties":{"cat":"camera","type":"Kamera","name":"Kamera","vendor":"Axis Communications AB","src":"nvdb"}},{"type":"Feature","geometry":{"type":"Point","coordinates":[10.37696,63.41677]},"properties":{"cat":"camera","type":"Kamera","name":"Kamera","vendor":"Bosch","src":"nvdb"}},{"type":"Feature","geometry":{"type":"Point","coordinates":[10.37572,63.41706]},"properties":{"cat":"camera","type":"Kamera","name":"Kamera","vendor":"Bosch","src":"nvdb"}},{"type":"Feature","geometry":{"type":"Point","coordinates":[10.37471,63.41749]},"properties":{"cat":"camera","type":"Kamera","name":"Kamera","vendor":"Bosch","src":"nvdb"}},{"type":"Feature","geometry":{"type":"Point","coordinates":[10.374,63.41803]},"properties":{"cat":"camera","type":"Kamera","name":"Kamera","vendor":"Bosch","src":"nvdb"}},{"type":"Feature","geometry":{"type":"Point","coordinates":[10.37357,63.41863]},"properties":{"cat":"camera","type":"Kamera","name":"Kamera","vendor":"Bosch","src":"nvdb"}},{"type":"Feature","geometry":{"type":"Point","coordinates":[10.37316,63.41923]},"properties":{"cat":"camera","type":"Kamera","name":"Kamera","vendor":"Bosch","src":"nvdb"}},{"type":"Feature","geometry":{"type":"Point","coordinates":[10.37275,63.41983]},"properties":{"cat":"camera","type":"Kamera","name":"Kamera","vendor":"Bosch","src":"nvdb"}},{"type":"Feature","geometry":{"type":"Point","coordinates":[10.37235,63.42043]},"properties":{"cat":"camera","type":"Kamera","name":"Kamera","vendor":"Bosch","src":"nvdb"}},{"type":"Feature","geometry":{"type":"Point","coordinates":[10.37194,63.42103]},"properties":{"cat":"camera","type":"Kamera","name":"Kamera","vendor":"Bosch","src":"nvdb"}},{"type":"Feature","geometry":{"type":"Point","coordinates":[10.37153,63.42163]},"properties":{"cat":"camera","type":"Kamera","name":"Kamera","vendor":"Bosch","src":"nvdb"}},{"type":"Feature","geometry":{"type":"Point","coordinates":[10.37111,63.42225]},"properties":{"cat":"camera","type":"Kamera","name":"Kamera","vendor":"Bosch","src":"nvdb"}},{"type":"Feature","geometry":{"type":"Point","coordinates":[10.37072,63.42283]},"properties":{"cat":"camera","type":"Kamera","name":"Kamera","vendor":"Bosch","src":"nvdb"}},{"type":"Feature","geometry":{"type":"Point","coordinates":[10.37031,63.42343]},"properties":{"cat":"camera","type":"Kamera","name":"Kamera","vendor":null,"src":"nvdb"}},{"type":"Feature","geometry":{"type":"Point","coordinates":[10.3699,63.42403]},"properties":{"cat":"camera","type":"Kamera","name":"Kamera","vendor":"Bosch","src":"nvdb"}},{"type":"Feature","geometry":{"type":"Point","coordinates":[10.36946,63.42463]},"properties":{"cat":"camera","type":"Kamera","name":"Kamera","vendor":"Bosch","src":"nvdb"}},{"type":"Feature","geometry":{"type":"Point","coordinates":[10.36886,63.42519]},"properties":{"cat":"camera","type":"Kamera","name":"Kamera","vendor":"Bosch","src":"nvdb"}},{"type":"Feature","geometry":{"type":"Point","coordinates":[10.36807,63.42571]},"properties":{"cat":"camera","type":"Kamera","name":"Kamera","vendor":"Bosch","src":"nvdb"}},{"type":"Feature","geometry":{"type":"Point","coordinates":[10.36712,63.42617]},"properties":{"cat":"camera","type":"Kamera","name":"Kamera","vendor":"Bosch","src":"nvdb"}},{"type":"Feature","geometry":{"type":"Point","coordinates":[10.36603,63.42657]},"properties":{"cat":"camera","type":"Kamera","name":"Kamera","vendor":"Bosch","src":"nvdb"}},{"type":"Feature","geometry":{"type":"Point","coordinates":[10.36492,63.42695]},"properties":{"cat":"camera","type":"Kamera","name":"Kamera","vendor":"Bosch","src":"nvdb"}},{"type":"Feature","geometry":{"type":"Point","coordinates":[10.37185,63.43149]},"properties":{"cat":"camera","type":"Kamera","name":"Kamera","vendor":"Bosch","src":"nvdb"}},{"type":"Feature","geometry":{"type":"Point","coordinates":[10.38311,63.43287]},"properties":{"cat":"camera","type":"Kamera","name":"Kamera","vendor":"Axis","src":"nvdb"}},{"type":"Feature","geometry":{"type":"Point","coordinates":[10.36408,63.42769]},"properties":{"cat":"camera","type":"Kamera","name":"Kamera","vendor":null,"src":"nvdb"}},{"type":"Feature","geometry":{"type":"Point","coordinates":[10.36524,63.4279]},"properties":{"cat":"camera","type":"Kamera","name":"Kamera","vendor":null,"src":"nvdb"}},{"type":"Feature","geometry":{"type":"Point","coordinates":[10.36649,63.42806]},"properties":{"cat":"camera","type":"Kamera","name":"Kamera","vendor":null,"src":"nvdb"}},{"type":"Feature","geometry":{"type":"Point","coordinates":[10.36657,63.42808]},"properties":{"cat":"camera","type":"Kamera","name":"Kamera","vendor":null,"src":"nvdb"}},{"type":"Feature","geometry":{"type":"Point","coordinates":[10.36282,63.42776]},"properties":{"cat":"camera","type":"Kamera","name":"Kamera","vendor":null,"src":"nvdb"}},{"type":"Feature","geometry":{"type":"Point","coordinates":[10.3618,63.4283]},"properties":{"cat":"camera","type":"Kamera","name":"Kamera","vendor":null,"src":"nvdb"}},{"type":"Feature","geometry":{"type":"Point","coordinates":[10.36109,63.42875]},"properties":{"cat":"camera","type":"Kamera","name":"Kamera","vendor":null,"src":"nvdb"}},{"type":"Feature","geometry":{"type":"Point","coordinates":[10.36072,63.42915]},"properties":{"cat":"camera","type":"Kamera","name":"Kamera","vendor":null,"src":"nvdb"}},{"type":"Feature","geometry":{"type":"Point","coordinates":[10.3605,63.42953]},"properties":{"cat":"camera","type":"Kamera","name":"Kamera","vendor":null,"src":"nvdb"}},{"type":"Feature","geometry":{"type":"Point","coordinates":[10.36037,63.42989]},"properties":{"cat":"camera","type":"Kamera","name":"Kamera","vendor":null,"src":"nvdb"}},{"type":"Feature","geometry":{"type":"Point","coordinates":[10.3603,63.43026]},"properties":{"cat":"camera","type":"Kamera","name":"Kamera","vendor":"Bosch","src":"nvdb"}},{"type":"Feature","geometry":{"type":"Point","coordinates":[10.3667,63.43171]},"properties":{"cat":"camera","type":"Kamera","name":"Kamera","vendor":null,"src":"nvdb"}},{"type":"Feature","geometry":{"type":"Point","coordinates":[10.3794,63.41646]},"properties":{"cat":"camera","type":"Kamera","name":"Kamera","vendor":"Pelco","src":"nvdb"}},{"type":"Feature","geometry":{"type":"Point","coordinates":[10.37996,63.41632]},"properties":{"cat":"camera","type":"Kamera","name":"Kamera","vendor":"Axis","src":"nvdb"}},{"type":"Feature","geometry":{"type":"Point","coordinates":[10.45601,63.43519]},"properties":{"cat":"camera","type":"Kamera","name":"Kamera","vendor":"Bosch","src":"nvdb"}},{"type":"Feature","geometry":{"type":"Point","coordinates":[10.42,63.43398]},"properties":{"cat":"camera","type":"Kamera","name":"Kamera","vendor":"Bosch","src":"nvdb"}},{"type":"Feature","geometry":{"type":"Point","coordinates":[10.45411,63.43554]},"properties":{"cat":"camera","type":"Kamera","name":"Kamera","vendor":"Bosch","src":"nvdb"}},{"type":"Feature","geometry":{"type":"Point","coordinates":[10.43479,63.43294]},"properties":{"cat":"camera","type":"Kamera","name":"Kamera","vendor":"Bosch","src":"nvdb"}},{"type":"Feature","geometry":{"type":"Point","coordinates":[10.4468,63.43494]},"properties":{"cat":"camera","type":"Kamera","name":"Kamera","vendor":"Bosch","src":"nvdb"}},{"type":"Feature","geometry":{"type":"Point","coordinates":[10.45648,63.43518]},"properties":{"cat":"camera","type":"Kamera","name":"Kamera","vendor":"Bosch","src":"nvdb"}},{"type":"Feature","geometry":{"type":"Point","coordinates":[10.4555,63.43536]},"properties":{"cat":"camera","type":"Kamera","name":"Kamera","vendor":"Bosch","src":"nvdb"}},{"type":"Feature","geometry":{"type":"Point","coordinates":[10.4544,63.43547]},"properties":{"cat":"camera","type":"Kamera","name":"Kamera","vendor":"Bosch","src":"nvdb"}},{"type":"Feature","geometry":{"type":"Point","coordinates":[10.45218,63.43528]},"properties":{"cat":"camera","type":"Kamera","name":"Kamera","vendor":"Bosch","src":"nvdb"}},{"type":"Feature","geometry":{"type":"Point","coordinates":[10.4512,63.4352]},"properties":{"cat":"camera","type":"Kamera","name":"Kamera","vendor":"Bosch","src":"nvdb"}},{"type":"Feature","geometry":{"type":"Point","coordinates":[10.44961,63.43509]},"properties":{"cat":"camera","type":"Kamera","name":"Kamera","vendor":"Bosch","src":"nvdb"}},{"type":"Feature","geometry":{"type":"Point","coordinates":[10.44823,63.435]},"properties":{"cat":"camera","type":"Kamera","name":"Kamera","vendor":"Bosch","src":"nvdb"}},{"type":"Feature","geometry":{"type":"Point","coordinates":[10.44685,63.43488]},"properties":{"cat":"camera","type":"Kamera","name":"Kamera","vendor":"Bosch","src":"nvdb"}},{"type":"Feature","geometry":{"type":"Point","coordinates":[10.45711,63.43503]},"properties":{"cat":"camera","type":"Kamera","name":"Kamera","vendor":"Bosch","src":"nvdb"}},{"type":"Feature","geometry":{"type":"Point","coordinates":[10.45541,63.43526]},"properties":{"cat":"camera","type":"Kamera","name":"Kamera","vendor":"Bosch","src":"nvdb"}},{"type":"Feature","geometry":{"type":"Point","coordinates":[10.45449,63.43535]},"properties":{"cat":"camera","type":"Kamera","name":"Kamera","vendor":"Bosch","src":"nvdb"}},{"type":"Feature","geometry":{"type":"Point","coordinates":[10.45329,63.43541]},"properties":{"cat":"camera","type":"Kamera","name":"Kamera","vendor":"Bosch","src":"nvdb"}},{"type":"Feature","geometry":{"type":"Point","coordinates":[10.4521,63.43543]},"properties":{"cat":"camera","type":"Kamera","name":"Kamera","vendor":"Bosch","src":"nvdb"}},{"type":"Feature","geometry":{"type":"Point","coordinates":[10.45088,63.4354]},"properties":{"cat":"camera","type":"Kamera","name":"Kamera","vendor":"Bosch","src":"nvdb"}},{"type":"Feature","geometry":{"type":"Point","coordinates":[10.44944,63.4353]},"properties":{"cat":"camera","type":"Kamera","name":"Kamera","vendor":"Bosch","src":"nvdb"}},{"type":"Feature","geometry":{"type":"Point","coordinates":[10.44813,63.43515]},"properties":{"cat":"camera","type":"Kamera","name":"Kamera","vendor":"Bosch","src":"nvdb"}},{"type":"Feature","geometry":{"type":"Point","coordinates":[10.44568,63.43475]},"properties":{"cat":"camera","type":"Kamera","name":"Kamera","vendor":"Bosch","src":"nvdb"}},{"type":"Feature","geometry":{"type":"Point","coordinates":[10.44455,63.43456]},"properties":{"cat":"camera","type":"Kamera","name":"Kamera","vendor":"Bosch","src":"nvdb"}},{"type":"Feature","geometry":{"type":"Point","coordinates":[10.44343,63.43438]},"properties":{"cat":"camera","type":"Kamera","name":"Kamera","vendor":"Bosch","src":"nvdb"}},{"type":"Feature","geometry":{"type":"Point","coordinates":[10.44211,63.43416]},"properties":{"cat":"camera","type":"Kamera","name":"Kamera","vendor":"Bosch","src":"nvdb"}},{"type":"Feature","geometry":{"type":"Point","coordinates":[10.44074,63.43393]},"properties":{"cat":"camera","type":"Kamera","name":"Kamera","vendor":"Bosch","src":"nvdb"}},{"type":"Feature","geometry":{"type":"Point","coordinates":[10.43948,63.43372]},"properties":{"cat":"camera","type":"Kamera","name":"Kamera","vendor":"Bosch","src":"nvdb"}},{"type":"Feature","geometry":{"type":"Point","coordinates":[10.43817,63.4335]},"properties":{"cat":"camera","type":"Kamera","name":"Kamera","vendor":"Bosch","src":"nvdb"}},{"type":"Feature","geometry":{"type":"Point","coordinates":[10.43704,63.43331]},"properties":{"cat":"camera","type":"Kamera","name":"Kamera","vendor":"Bosch","src":"nvdb"}},{"type":"Feature","geometry":{"type":"Point","coordinates":[10.43592,63.43313]},"properties":{"cat":"camera","type":"Kamera","name":"Kamera","vendor":"Bosch","src":"nvdb"}},{"type":"Feature","geometry":{"type":"Point","coordinates":[10.43366,63.43276]},"properties":{"cat":"camera","type":"Kamera","name":"Kamera","vendor":"Bosch","src":"nvdb"}},{"type":"Feature","geometry":{"type":"Point","coordinates":[10.43252,63.43259]},"properties":{"cat":"camera","type":"Kamera","name":"Kamera","vendor":"Bosch","src":"nvdb"}},{"type":"Feature","geometry":{"type":"Point","coordinates":[10.43154,63.43249]},"properties":{"cat":"camera","type":"Kamera","name":"Kamera","vendor":"Bosch","src":"nvdb"}},{"type":"Feature","geometry":{"type":"Point","coordinates":[10.43016,63.43239]},"properties":{"cat":"camera","type":"Kamera","name":"Kamera","vendor":"Bosch","src":"nvdb"}},{"type":"Feature","geometry":{"type":"Point","coordinates":[10.42876,63.43236]},"properties":{"cat":"camera","type":"Kamera","name":"Kamera","vendor":"Bosch","src":"nvdb"}},{"type":"Feature","geometry":{"type":"Point","coordinates":[10.42754,63.43238]},"properties":{"cat":"camera","type":"Kamera","name":"Kamera","vendor":"Bosch","src":"nvdb"}},{"type":"Feature","geometry":{"type":"Point","coordinates":[10.42637,63.43244]},"properties":{"cat":"camera","type":"Kamera","name":"Kamera","vendor":"Bosch","src":"nvdb"}},{"type":"Feature","geometry":{"type":"Point","coordinates":[10.42519,63.43255]},"properties":{"cat":"camera","type":"Kamera","name":"Kamera","vendor":"Bosch","src":"nvdb"}},{"type":"Feature","geometry":{"type":"Point","coordinates":[10.42385,63.43274]},"properties":{"cat":"camera","type":"Kamera","name":"Kamera","vendor":"Bosch","src":"nvdb"}},{"type":"Feature","geometry":{"type":"Point","coordinates":[10.42254,63.43298]},"properties":{"cat":"camera","type":"Kamera","name":"Kamera","vendor":"Bosch","src":"nvdb"}},{"type":"Feature","geometry":{"type":"Point","coordinates":[10.42131,63.43328]},"properties":{"cat":"camera","type":"Kamera","name":"Kamera","vendor":"Bosch","src":"nvdb"}},{"type":"Feature","geometry":{"type":"Point","coordinates":[10.42033,63.43359]},"properties":{"cat":"camera","type":"Kamera","name":"Kamera","vendor":"Bosch","src":"nvdb"}},{"type":"Feature","geometry":{"type":"Point","coordinates":[10.41963,63.43391]},"properties":{"cat":"camera","type":"Kamera","name":"Kamera","vendor":"Bosch","src":"nvdb"}},{"type":"Feature","geometry":{"type":"Point","coordinates":[10.41884,63.43442]},"properties":{"cat":"camera","type":"Kamera","name":"Kamera","vendor":"Bosch","src":"nvdb"}},{"type":"Feature","geometry":{"type":"Point","coordinates":[10.41833,63.43492]},"properties":{"cat":"camera","type":"Kamera","name":"Kamera","vendor":"Bosch","src":"nvdb"}},{"type":"Feature","geometry":{"type":"Point","coordinates":[10.41806,63.43534]},"properties":{"cat":"camera","type":"Kamera","name":"Kamera","vendor":"Bosch","src":"nvdb"}},{"type":"Feature","geometry":{"type":"Point","coordinates":[10.41763,63.43637]},"properties":{"cat":"camera","type":"Kamera","name":"Kamera","vendor":"Bosch","src":"nvdb"}},{"type":"Feature","geometry":{"type":"Point","coordinates":[10.41718,63.43688]},"properties":{"cat":"camera","type":"Kamera","name":"Kamera","vendor":"Bosch","src":"nvdb"}},{"type":"Feature","geometry":{"type":"Point","coordinates":[10.41642,63.43726]},"properties":{"cat":"camera","type":"Kamera","name":"Kamera","vendor":"Bosch","src":"nvdb"}},{"type":"Feature","geometry":{"type":"Point","coordinates":[10.45468,63.43554]},"properties":{"cat":"camera","type":"Kamera","name":"Kamera","vendor":"Bosch","src":"nvdb"}},{"type":"Feature","geometry":{"type":"Point","coordinates":[10.45348,63.43554]},"properties":{"cat":"camera","type":"Kamera","name":"Kamera","vendor":"Bosch","src":"nvdb"}},{"type":"Feature","geometry":{"type":"Point","coordinates":[10.45228,63.43551]},"properties":{"cat":"camera","type":"Kamera","name":"Kamera","vendor":"Bosch","src":"nvdb"}},{"type":"Feature","geometry":{"type":"Point","coordinates":[10.45115,63.43563]},"properties":{"cat":"camera","type":"Kamera","name":"Kamera","vendor":"Bosch","src":"nvdb"}},{"type":"Feature","geometry":{"type":"Point","coordinates":[10.44994,63.43574]},"properties":{"cat":"camera","type":"Kamera","name":"Kamera","vendor":"Bosch","src":"nvdb"}},{"type":"Feature","geometry":{"type":"Point","coordinates":[10.44856,63.43562]},"properties":{"cat":"camera","type":"Kamera","name":"Kamera","vendor":"Bosch","src":"nvdb"}},{"type":"Feature","geometry":{"type":"Point","coordinates":[10.44762,63.4354]},"properties":{"cat":"camera","type":"Kamera","name":"Kamera","vendor":"Bosch","src":"nvdb"}},{"type":"Feature","geometry":{"type":"Point","coordinates":[10.4581,63.43498]},"properties":{"cat":"camera","type":"Kamera","name":"Kamera","vendor":"Bosch","src":"nvdb"}},{"type":"Feature","geometry":{"type":"Point","coordinates":[10.45693,63.43521]},"properties":{"cat":"camera","type":"Kamera","name":"Kamera","vendor":"Bosch","src":"nvdb"}},{"type":"Feature","geometry":{"type":"Point","coordinates":[10.45509,63.43546]},"properties":{"cat":"camera","type":"Kamera","name":"Kamera","vendor":"Bosch","src":"nvdb"}},{"type":"Feature","geometry":{"type":"Point","coordinates":[10.45292,63.4356]},"properties":{"cat":"camera","type":"Kamera","name":"Kamera","vendor":"Bosch","src":"nvdb"}},{"type":"Feature","geometry":{"type":"Point","coordinates":[10.45173,63.43561]},"properties":{"cat":"camera","type":"Kamera","name":"Kamera","vendor":"Bosch","src":"nvdb"}},{"type":"Feature","geometry":{"type":"Point","coordinates":[10.45032,63.43555]},"properties":{"cat":"camera","type":"Kamera","name":"Kamera","vendor":"Bosch","src":"nvdb"}},{"type":"Feature","geometry":{"type":"Point","coordinates":[10.44894,63.43543]},"properties":{"cat":"camera","type":"Kamera","name":"Kamera","vendor":"Bosch","src":"nvdb"}},{"type":"Feature","geometry":{"type":"Point","coordinates":[10.4476,63.43525]},"properties":{"cat":"camera","type":"Kamera","name":"Kamera","vendor":"Bosch","src":"nvdb"}},{"type":"Feature","geometry":{"type":"Point","coordinates":[10.44628,63.43504]},"properties":{"cat":"camera","type":"Kamera","name":"Kamera","vendor":"Bosch","src":"nvdb"}},{"type":"Feature","geometry":{"type":"Point","coordinates":[10.44516,63.43485]},"properties":{"cat":"camera","type":"Kamera","name":"Kamera","vendor":"Bosch","src":"nvdb"}},{"type":"Feature","geometry":{"type":"Point","coordinates":[10.44383,63.43463]},"properties":{"cat":"camera","type":"Kamera","name":"Kamera","vendor":"Bosch","src":"nvdb"}},{"type":"Feature","geometry":{"type":"Point","coordinates":[10.44291,63.43448]},"properties":{"cat":"camera","type":"Kamera","name":"Kamera","vendor":"Bosch","src":"nvdb"}},{"type":"Feature","geometry":{"type":"Point","coordinates":[10.44197,63.43432]},"properties":{"cat":"camera","type":"Kamera","name":"Kamera","vendor":"Bosch","src":"nvdb"}},{"type":"Feature","geometry":{"type":"Point","coordinates":[10.44082,63.43413]},"properties":{"cat":"camera","type":"Kamera","name":"Kamera","vendor":"Bosch","src":"nvdb"}},{"type":"Feature","geometry":{"type":"Point","coordinates":[10.43964,63.43393]},"properties":{"cat":"camera","type":"Kamera","name":"Kamera","vendor":"Bosch","src":"nvdb"}},{"type":"Feature","geometry":{"type":"Point","coordinates":[10.43838,63.43372]},"properties":{"cat":"camera","type":"Kamera","name":"Kamera","vendor":"Bosch","src":"nvdb"}},{"type":"Feature","geometry":{"type":"Point","coordinates":[10.43707,63.43351]},"properties":{"cat":"camera","type":"Kamera","name":"Kamera","vendor":"Bosch","src":"nvdb"}},{"type":"Feature","geometry":{"type":"Point","coordinates":[10.43596,63.43332]},"properties":{"cat":"camera","type":"Kamera","name":"Kamera","vendor":"Bosch","src":"nvdb"}},{"type":"Feature","geometry":{"type":"Point","coordinates":[10.43482,63.43313]},"properties":{"cat":"camera","type":"Kamera","name":"Kamera","vendor":"Bosch","src":"nvdb"}},{"type":"Feature","geometry":{"type":"Point","coordinates":[10.4335,63.43292]},"properties":{"cat":"camera","type":"Kamera","name":"Kamera","vendor":"Bosch","src":"nvdb"}},{"type":"Feature","geometry":{"type":"Point","coordinates":[10.43216,63.43273]},"properties":{"cat":"camera","type":"Kamera","name":"Kamera","vendor":"Bosch","src":"nvdb"}},{"type":"Feature","geometry":{"type":"Point","coordinates":[10.43079,63.4326]},"properties":{"cat":"camera","type":"Kamera","name":"Kamera","vendor":"Bosch","src":"nvdb"}},{"type":"Feature","geometry":{"type":"Point","coordinates":[10.42934,63.43254]},"properties":{"cat":"camera","type":"Kamera","name":"Kamera","vendor":"Bosch","src":"nvdb"}},{"type":"Feature","geometry":{"type":"Point","coordinates":[10.4282,63.43254]},"properties":{"cat":"camera","type":"Kamera","name":"Kamera","vendor":"Bosch","src":"nvdb"}},{"type":"Feature","geometry":{"type":"Point","coordinates":[10.427,63.43258]},"properties":{"cat":"camera","type":"Kamera","name":"Kamera","vendor":"Bosch","src":"nvdb"}},{"type":"Feature","geometry":{"type":"Point","coordinates":[10.42581,63.43267]},"properties":{"cat":"camera","type":"Kamera","name":"Kamera","vendor":"Bosch","src":"nvdb"}},{"type":"Feature","geometry":{"type":"Point","coordinates":[10.42465,63.4328]},"properties":{"cat":"camera","type":"Kamera","name":"Kamera","vendor":"Bosch","src":"nvdb"}},{"type":"Feature","geometry":{"type":"Point","coordinates":[10.42332,63.43302]},"properties":{"cat":"camera","type":"Kamera","name":"Kamera","vendor":"Bosch","src":"nvdb"}},{"type":"Feature","geometry":{"type":"Point","coordinates":[10.42207,63.43329]},"properties":{"cat":"camera","type":"Kamera","name":"Kamera","vendor":"Bosch","src":"nvdb"}},{"type":"Feature","geometry":{"type":"Point","coordinates":[10.42087,63.43363]},"properties":{"cat":"camera","type":"Kamera","name":"Kamera","vendor":"Bosch","src":"nvdb"}},{"type":"Feature","geometry":{"type":"Point","coordinates":[10.41924,63.43441]},"properties":{"cat":"camera","type":"Kamera","name":"Kamera","vendor":"Bosch","src":"nvdb"}},{"type":"Feature","geometry":{"type":"Point","coordinates":[10.41864,63.4349]},"properties":{"cat":"camera","type":"Kamera","name":"Kamera","vendor":"Bosch","src":"nvdb"}},{"type":"Feature","geometry":{"type":"Point","coordinates":[10.41827,63.43539]},"properties":{"cat":"camera","type":"Kamera","name":"Kamera","vendor":"Bosch","src":"nvdb"}},{"type":"Feature","geometry":{"type":"Point","coordinates":[10.41806,63.43584]},"properties":{"cat":"camera","type":"Kamera","name":"Kamera","vendor":"Bosch","src":"nvdb"}},{"type":"Feature","geometry":{"type":"Point","coordinates":[10.41782,63.43645]},"properties":{"cat":"camera","type":"Kamera","name":"Kamera","vendor":"Bosch","src":"nvdb"}},{"type":"Feature","geometry":{"type":"Point","coordinates":[10.41735,63.43697]},"properties":{"cat":"camera","type":"Kamera","name":"Kamera","vendor":"Bosch","src":"nvdb"}},{"type":"Feature","geometry":{"type":"Point","coordinates":[10.41661,63.43732]},"properties":{"cat":"camera","type":"Kamera","name":"Kamera","vendor":"Bosch","src":"nvdb"}},{"type":"Feature","geometry":{"type":"Point","coordinates":[10.46111,63.43416]},"properties":{"cat":"camera","type":"Kamera","name":"Kamera","vendor":"Bosch","src":"nvdb"}},{"type":"Feature","geometry":{"type":"Point","coordinates":[10.4595,63.43452]},"properties":{"cat":"camera","type":"Kamera","name":"Kamera","vendor":"Bosch","src":"nvdb"}},{"type":"Feature","geometry":{"type":"Point","coordinates":[10.45828,63.4348]},"properties":{"cat":"camera","type":"Kamera","name":"Kamera","vendor":"Bosch","src":"nvdb"}},{"type":"Feature","geometry":{"type":"Point","coordinates":[10.4177,63.43586]},"properties":{"cat":"camera","type":"Kamera","name":"Kamera","vendor":"Bosch","src":"nvdb"}},{"type":"Feature","geometry":{"type":"Point","coordinates":[10.41582,63.43741]},"properties":{"cat":"camera","type":"Kamera","name":"Kamera","vendor":"Bosch","src":"nvdb"}},{"type":"Feature","geometry":{"type":"Point","coordinates":[10.45571,63.43541]},"properties":{"cat":"camera","type":"Kamera","name":"Kamera","vendor":"Bosch","src":"nvdb"}},{"type":"Feature","geometry":{"type":"Point","coordinates":[10.46111,63.43416]},"properties":{"cat":"camera","type":"Kamera","name":"Kamera","vendor":"Bosch","src":"nvdb"}},{"type":"Feature","geometry":{"type":"Point","coordinates":[10.45993,63.43452]},"properties":{"cat":"camera","type":"Kamera","name":"Kamera","vendor":"Bosch","src":"nvdb"}},{"type":"Feature","geometry":{"type":"Point","coordinates":[10.45939,63.43468]},"properties":{"cat":"camera","type":"Kamera","name":"Kamera","vendor":"Bosch","src":"nvdb"}},{"type":"Feature","geometry":{"type":"Point","coordinates":[10.4159,63.43751]},"properties":{"cat":"camera","type":"Kamera","name":"Kamera","vendor":"Bosch","src":"nvdb"}},{"type":"Feature","geometry":{"type":"Point","coordinates":[10.49502,63.43095]},"properties":{"cat":"camera","type":"Kamera","name":"Kamera","vendor":"Siqura","src":"nvdb"}},{"type":"Feature","geometry":{"type":"Point","coordinates":[10.47226,63.43214]},"properties":{"cat":"camera","type":"Kamera","name":"Kamera","vendor":"Siqura","src":"nvdb"}},{"type":"Feature","geometry":{"type":"Point","coordinates":[10.45756,63.43569]},"properties":{"cat":"camera","type":"Kamera","name":"Kamera","vendor":"ACTI","src":"nvdb"}},{"type":"Feature","geometry":{"type":"Point","coordinates":[10.45654,63.43449]},"properties":{"cat":"camera","type":"Kamera","name":"Kamera","vendor":"ACTI","src":"nvdb"}},{"type":"Feature","geometry":{"type":"Point","coordinates":[10.46295,63.43383]},"properties":{"cat":"camera","type":"Kamera","name":"Kamera","vendor":"ACTI","src":"nvdb"}},{"type":"Feature","geometry":{"type":"Point","coordinates":[10.48283,63.4287]},"properties":{"cat":"camera","type":"Kamera","name":"Kamera","vendor":"ACTI","src":"nvdb"}},{"type":"Feature","geometry":{"type":"Point","coordinates":[10.48828,63.43092]},"properties":{"cat":"camera","type":"Kamera","name":"Kamera","vendor":"ACTI","src":"nvdb"}},{"type":"Feature","geometry":{"type":"Point","coordinates":[10.45621,63.43328]},"properties":{"cat":"camera","type":"Kamera","name":"Kamera","vendor":"Bosch","src":"nvdb"}},{"type":"Feature","geometry":{"type":"Point","coordinates":[10.41515,63.43777]},"properties":{"cat":"camera","type":"Kamera","name":"Kamera","vendor":"ACTI","src":"nvdb"}},{"type":"Feature","geometry":{"type":"Point","coordinates":[10.37847,63.43176]},"properties":{"cat":"camera","type":"Kamera","name":"Kamera","vendor":"Axis","src":"nvdb"}},{"type":"Feature","geometry":{"type":"Point","coordinates":[10.37948,63.43222]},"properties":{"cat":"camera","type":"Kamera","name":"Kamera","vendor":"Axis","src":"nvdb"}},{"type":"Feature","geometry":{"type":"Point","coordinates":[10.3801,63.43226]},"properties":{"cat":"camera","type":"Kamera","name":"Kamera","vendor":"Axis","src":"nvdb"}},{"type":"Feature","geometry":{"type":"Point","coordinates":[10.37925,63.43215]},"properties":{"cat":"camera","type":"Kamera","name":"Kamera","vendor":"Axis","src":"nvdb"}},{"type":"Feature","geometry":{"type":"Point","coordinates":[10.4975,63.43027]},"properties":{"cat":"camera","type":"Kamera","name":"Kamera","vendor":"Bosch","src":"nvdb"}},{"type":"Feature","geometry":{"type":"Point","coordinates":[10.5114,63.42692]},"properties":{"cat":"camera","type":"Kamera","name":"Kamera","vendor":"Bosch","src":"nvdb"}},{"type":"Feature","geometry":{"type":"Point","coordinates":[10.49501,63.43095]},"properties":{"cat":"camera","type":"Kamera","name":"Kamera","vendor":"Bosch","src":"nvdb"}},{"type":"Feature","geometry":{"type":"Point","coordinates":[10.59389,63.42253]},"properties":{"cat":"camera","type":"Kamera","name":"Kamera","vendor":"Bosch","src":"nvdb"}},{"type":"Feature","geometry":{"type":"Point","coordinates":[10.58792,63.4228]},"properties":{"cat":"camera","type":"Kamera","name":"Kamera","vendor":"DOME/PTZ","src":"nvdb"}},{"type":"Feature","geometry":{"type":"Point","coordinates":[10.58573,63.42292]},"properties":{"cat":"camera","type":"Kamera","name":"Kamera","vendor":"Bosch","src":"nvdb"}},{"type":"Feature","geometry":{"type":"Point","coordinates":[10.59471,63.42249]},"properties":{"cat":"camera","type":"Kamera","name":"Kamera","vendor":"Bosch","src":"nvdb"}},{"type":"Feature","geometry":{"type":"Point","coordinates":[10.59349,63.42255]},"properties":{"cat":"camera","type":"Kamera","name":"Kamera","vendor":"Bosch","src":"nvdb"}},{"type":"Feature","geometry":{"type":"Point","coordinates":[10.59226,63.4226]},"properties":{"cat":"camera","type":"Kamera","name":"Kamera","vendor":"Bosch","src":"nvdb"}},{"type":"Feature","geometry":{"type":"Point","coordinates":[10.59098,63.42266]},"properties":{"cat":"camera","type":"Kamera","name":"Kamera","vendor":"Bosch","src":"nvdb"}},{"type":"Feature","geometry":{"type":"Point","coordinates":[10.58973,63.42271]},"properties":{"cat":"camera","type":"Kamera","name":"Kamera","vendor":"Bosch","src":"nvdb"}},{"type":"Feature","geometry":{"type":"Point","coordinates":[10.58846,63.42277]},"properties":{"cat":"camera","type":"Kamera","name":"Kamera","vendor":"Bosch","src":"nvdb"}},{"type":"Feature","geometry":{"type":"Point","coordinates":[10.58724,63.42284]},"properties":{"cat":"camera","type":"Kamera","name":"Kamera","vendor":"Thermo/FLIR","src":"nvdb"}},{"type":"Feature","geometry":{"type":"Point","coordinates":[10.58595,63.4229]},"properties":{"cat":"camera","type":"Kamera","name":"Kamera","vendor":"Thermo/FLIR","src":"nvdb"}},{"type":"Feature","geometry":{"type":"Point","coordinates":[10.58475,63.42297]},"properties":{"cat":"camera","type":"Kamera","name":"Kamera","vendor":"Dahua technology","src":"nvdb"}},{"type":"Feature","geometry":{"type":"Point","coordinates":[10.58347,63.42306]},"properties":{"cat":"camera","type":"Kamera","name":"Kamera","vendor":"Thermo/FLIR","src":"nvdb"}},{"type":"Feature","geometry":{"type":"Point","coordinates":[10.32017,63.32434]},"properties":{"cat":"camera","type":"Kamera","name":"Kamera","vendor":"Axxis","src":"nvdb"}},{"type":"Feature","geometry":{"type":"Point","coordinates":[10.44153,63.40923]},"properties":{"cat":"camera","type":"Kamera","name":"Kamera","vendor":"Dahua technology","src":"nvdb"}},{"type":"Feature","geometry":{"type":"Point","coordinates":[10.37503,63.37811]},"properties":{"cat":"camera","type":"Kamera","name":"Kamera","vendor":"Bosch","src":"nvdb"}},{"type":"Feature","geometry":{"type":"Point","coordinates":[10.37503,63.37811]},"properties":{"cat":"camera","type":"Kamera","name":"Kamera","vendor":"VIVOTEK","src":"nvdb"}},{"type":"Feature","geometry":{"type":"Point","coordinates":[10.37559,63.36445]},"properties":{"cat":"camera","type":"Kamera","name":"Kamera","vendor":"Axis Communications AB","src":"nvdb"}},{"type":"Feature","geometry":{"type":"Point","coordinates":[10.40007,63.43534]},"properties":{"cat":"camera","type":"Kamera","name":"Kamera","vendor":"Axis Communications AB","src":"nvdb"}},{"type":"Feature","geometry":{"type":"Point","coordinates":[10.39179,63.4306]},"properties":{"cat":"camera","type":"Kamera","name":"Kamera","vendor":"Axis Communications AB","src":"nvdb"}},{"type":"Feature","geometry":{"type":"Point","coordinates":[10.3588,63.40514]},"properties":{"cat":"camera","type":"Kamera","name":"Kamera","vendor":"Axis Communications AB","src":"nvdb"}},{"type":"Feature","geometry":{"type":"Point","coordinates":[10.47076,63.42341]},"properties":{"cat":"camera","type":"Kamera","name":"Kamera","vendor":"Axis Communications AB","src":"nvdb"}},{"type":"Feature","geometry":{"type":"Point","coordinates":[10.38999,63.39517]},"properties":{"cat":"camera","type":"Kamera","name":"Kamera","vendor":"Dahua technology","src":"nvdb"}},{"type":"Feature","geometry":{"type":"Point","coordinates":[10.37503,63.37811]},"properties":{"cat":"camera","type":"Kamera","name":"Kamera","vendor":"Axis Communications AB","src":"nvdb"}},{"type":"Feature","geometry":{"type":"Point","coordinates":[10.3169,63.37907]},"properties":{"cat":"camera","type":"Kamera","name":"Kamera","vendor":"Axis Communications AB","src":"nvdb"}},{"type":"Feature","geometry":{"type":"Point","coordinates":[10.34326,63.32621]},"properties":{"cat":"camera","type":"Kamera","name":"Kamera","vendor":"VIVOTEK","src":"nvdb"}},{"type":"Feature","geometry":{"type":"Point","coordinates":[10.37084,63.34658]},"properties":{"cat":"camera","type":"Kamera","name":"Kamera","vendor":"VIVOTEK","src":"nvdb"}},{"type":"Feature","geometry":{"type":"Point","coordinates":[10.43492,63.44333]},"properties":{"cat":"camera","type":"Kamera","name":"Kamera","vendor":"swarco","src":"nvdb"}},{"type":"Feature","geometry":{"type":"Point","coordinates":[10.43804,63.44514]},"properties":{"cat":"camera","type":"Kamera","name":"Kamera","vendor":"Flir","src":"nvdb"}},{"type":"Feature","geometry":{"type":"Point","coordinates":[10.43796,63.44509]},"properties":{"cat":"camera","type":"Kamera","name":"Kamera","vendor":"Flir","src":"nvdb"}},{"type":"Feature","geometry":{"type":"Point","coordinates":[10.43487,63.4433]},"properties":{"cat":"camera","type":"Kamera","name":"Kamera","vendor":"swarco","src":"nvdb"}},{"type":"Feature","geometry":{"type":"Point","coordinates":[10.43825,63.44526]},"properties":{"cat":"camera","type":"Kamera","name":"Kamera","vendor":"Flir","src":"nvdb"}},{"type":"Feature","geometry":{"type":"Point","coordinates":[10.32283,63.32513]},"properties":{"cat":"camera","type":"Kamera","name":"Kamera","vendor":"VIVOTEK","src":"nvdb"}},{"type":"Feature","geometry":{"type":"Point","coordinates":[10.30199,63.32244]},"properties":{"cat":"camera","type":"Kamera","name":"Kamera","vendor":"VIVOTEK","src":"nvdb"}},{"type":"Feature","geometry":{"type":"Point","coordinates":[10.29633,63.31692]},"properties":{"cat":"camera","type":"Kamera","name":"Kamera","vendor":"VIVOTEK","src":"nvdb"}},{"type":"Feature","geometry":{"type":"Point","coordinates":[10.49457,63.42925]},"properties":{"cat":"camera","type":"Kamera","name":"Kamera","vendor":"Flir","src":"nvdb"}},{"type":"Feature","geometry":{"type":"Point","coordinates":[10.49417,63.42937]},"properties":{"cat":"camera","type":"Kamera","name":"Kamera","vendor":"Flir","src":"nvdb"}},{"type":"Feature","geometry":{"type":"Point","coordinates":[10.3504,63.32802]},"properties":{"cat":"camera","type":"Kamera","name":"Kamera","vendor":"VIVOTEK","src":"nvdb"}},{"type":"Feature","geometry":{"type":"Point","coordinates":[10.45306,63.44271]},"properties":{"cat":"camera","type":"Kamera","name":"Kamera","vendor":"Axis Communications AB","src":"nvdb"}},{"type":"Feature","geometry":{"type":"Point","coordinates":[10.37557,63.35289]},"properties":{"cat":"camera","type":"Kamera","name":"Kamera","vendor":"Teledyne Flir","src":"nvdb"}},{"type":"Feature","geometry":{"type":"Point","coordinates":[10.3755,63.35269]},"properties":{"cat":"camera","type":"Kamera","name":"Kamera","vendor":"Teledyne Flir","src":"nvdb"}},{"type":"Feature","geometry":{"type":"Point","coordinates":[10.3755,63.35268]},"properties":{"cat":"camera","type":"Kamera","name":"Kamera","vendor":"Teledyne Flir","src":"nvdb"}},{"type":"Feature","geometry":{"type":"Point","coordinates":[10.45296,63.44274]},"properties":{"cat":"camera","type":"Kamera","name":"Kamera","vendor":"Axis Communications AB","src":"nvdb"}},{"type":"Feature","geometry":{"type":"Point","coordinates":[10.31576,63.38011]},"properties":{"cat":"camera","type":"Kamera","name":"Kamera","vendor":"Axis Communications AB","src":"nvdb"}},{"type":"Feature","geometry":{"type":"Point","coordinates":[10.29789,63.3238]},"properties":{"cat":"camera","type":"Kamera","name":"Kamera","vendor":null,"src":"nvdb"}},{"type":"Feature","geometry":{"type":"Point","coordinates":[10.3972,63.43326]},"properties":{"cat":"camera","type":"Kamera","name":"Kamera","vendor":"Flir","src":"nvdb"}},{"type":"Feature","geometry":{"type":"Point","coordinates":[10.40001,63.43575]},"properties":{"cat":"camera","type":"Kamera","name":"Kamera","vendor":null,"src":"nvdb"}},{"type":"Feature","geometry":{"type":"Point","coordinates":[10.30438,63.32371]},"properties":{"cat":"camera","type":"Kamera","name":"Kamera","vendor":"Axis Communications AB","src":"nvdb"}},{"type":"Feature","geometry":{"type":"Point","coordinates":[10.43246,63.44156]},"properties":{"cat":"camera","type":"Kamera","name":"Kamera","vendor":"Flir","src":"nvdb"}},{"type":"Feature","geometry":{"type":"Point","coordinates":[10.4322,63.44156]},"properties":{"cat":"camera","type":"Kamera","name":"Kamera","vendor":null,"src":"nvdb"}},{"type":"Feature","geometry":{"type":"Point","coordinates":[10.37018,63.34838]},"properties":{"cat":"camera","type":"Kamera","name":"Kamera","vendor":"Axis Communications AB","src":"nvdb"}},{"type":"Feature","geometry":{"type":"Point","coordinates":[10.38818,63.40123]},"properties":{"cat":"camera","type":"Kamera","name":"Kamera","vendor":"Axis","src":"nvdb"}},{"type":"Feature","geometry":{"type":"Point","coordinates":[10.38908,63.39763]},"properties":{"cat":"camera","type":"Kamera","name":"Kamera","vendor":"Axis","src":"nvdb"}},{"type":"Feature","geometry":{"type":"Point","coordinates":[10.38483,63.3937]},"properties":{"cat":"camera","type":"Kamera","name":"Kamera","vendor":"Axis","src":"nvdb"}},{"type":"Feature","geometry":{"type":"Point","coordinates":[10.51848,63.42501]},"properties":{"cat":"camera","type":"Kamera","name":"Kamera","vendor":"Zhejiang Dahua Technology Co., Ltd","src":"nvdb"}},{"type":"Feature","geometry":{"type":"Point","coordinates":[10.20042,63.45103]},"properties":{"cat":"camera","type":"Kamera","name":"Kamera","vendor":"Flir","src":"nvdb"}},{"type":"Feature","geometry":{"type":"Point","coordinates":[10.20043,63.45103]},"properties":{"cat":"camera","type":"Kamera","name":"Kamera","vendor":"Flir","src":"nvdb"}},{"type":"Feature","geometry":{"type":"Point","coordinates":[10.30438,63.32371]},"properties":{"cat":"camera","type":"Kamera","name":"Kamera","vendor":"Axis Communications AB","src":"nvdb"}},{"type":"Feature","geometry":{"type":"Point","coordinates":[10.31717,63.32321]},"properties":{"cat":"alpr","type":"Kamera","name":"Kamera","vendor":"Neology Inc","src":"nvdb"}},{"type":"Feature","geometry":{"type":"Point","coordinates":[10.31717,63.32321]},"properties":{"cat":"alpr","type":"Kamera","name":"Kamera","vendor":"Neology Inc","src":"nvdb"}},{"type":"Feature","geometry":{"type":"Point","coordinates":[10.35417,63.32985]},"properties":{"cat":"alpr","type":"Kamera","name":"Kamera","vendor":"Neology Inc","src":"nvdb"}},{"type":"Feature","geometry":{"type":"Point","coordinates":[10.35419,63.32984]},"properties":{"cat":"alpr","type":"Kamera","name":"Kamera","vendor":"Neology Inc","src":"nvdb"}},{"type":"Feature","geometry":{"type":"Point","coordinates":[10.31857,63.325]},"properties":{"cat":"alpr","type":"Kamera","name":"Kamera","vendor":"3M","src":"nvdb"}},{"type":"Feature","geometry":{"type":"Point","coordinates":[10.31858,63.325]},"properties":{"cat":"alpr","type":"Kamera","name":"Kamera","vendor":"3M","src":"nvdb"}},{"type":"Feature","geometry":{"type":"Point","coordinates":[10.50148,63.42892]},"properties":{"cat":"camera","type":"Kamera","name":"Kamera","vendor":"Axis Communications AB","src":"nvdb"}},{"type":"Feature","geometry":{"type":"Point","coordinates":[10.50723,63.4277]},"properties":{"cat":"camera","type":"Kamera","name":"Kamera","vendor":"Axis Communications AB","src":"nvdb"}},{"type":"Feature","geometry":{"type":"Point","coordinates":[10.50145,63.42893]},"properties":{"cat":"camera","type":"Kamera","name":"Kamera","vendor":"Axis Communications AB","src":"nvdb"}},{"type":"Feature","geometry":{"type":"Point","coordinates":[10.50869,63.42746]},"properties":{"cat":"camera","type":"Kamera","name":"Kamera","vendor":"Axis Communications AB","src":"nvdb"}},{"type":"Feature","geometry":{"type":"Point","coordinates":[10.49741,63.4303]},"properties":{"cat":"camera","type":"Kamera","name":"Kamera","vendor":"Axis Communications AB","src":"nvdb"}},{"type":"Feature","geometry":{"type":"Point","coordinates":[10.50042,63.42926]},"properties":{"cat":"camera","type":"Kamera","name":"Kamera","vendor":"Axis Communications AB","src":"nvdb"}},{"type":"Feature","geometry":{"type":"Point","coordinates":[10.50487,63.4281]},"properties":{"cat":"camera","type":"Kamera","name":"Kamera","vendor":"Axis Communications AB","src":"nvdb"}},{"type":"Feature","geometry":{"type":"Point","coordinates":[10.50867,63.42746]},"properties":{"cat":"camera","type":"Kamera","name":"Kamera","vendor":"Axis Communications AB","src":"nvdb"}},{"type":"Feature","geometry":{"type":"Point","coordinates":[10.49759,63.43025]},"properties":{"cat":"camera","type":"Kamera","name":"Kamera","vendor":"Axis Communications AB","src":"nvdb"}},{"type":"Feature","geometry":{"type":"Point","coordinates":[10.49857,63.42992]},"properties":{"cat":"camera","type":"Kamera","name":"Kamera","vendor":"Axis Communications AB","src":"nvdb"}},{"type":"Feature","geometry":{"type":"Point","coordinates":[10.50604,63.42789]},"properties":{"cat":"camera","type":"Kamera","name":"Kamera","vendor":"Axis Communications AB","src":"nvdb"}},{"type":"Feature","geometry":{"type":"Point","coordinates":[10.50367,63.42834]},"properties":{"cat":"camera","type":"Kamera","name":"Kamera","vendor":"Axis Communications AB","src":"nvdb"}},{"type":"Feature","geometry":{"type":"Point","coordinates":[10.50725,63.42769]},"properties":{"cat":"camera","type":"Kamera","name":"Kamera","vendor":"Axis Communications AB","src":"nvdb"}},{"type":"Feature","geometry":{"type":"Point","coordinates":[10.49842,63.42997]},"properties":{"cat":"camera","type":"Kamera","name":"Kamera","vendor":"Axis Communications AB","src":"nvdb"}},{"type":"Feature","geometry":{"type":"Point","coordinates":[10.50604,63.42789]},"properties":{"cat":"camera","type":"Kamera","name":"Kamera","vendor":"Axis Communications AB","src":"nvdb"}},{"type":"Feature","geometry":{"type":"Point","coordinates":[10.50256,63.42861]},"properties":{"cat":"camera","type":"Kamera","name":"Kamera","vendor":"Axis Communications AB","src":"nvdb"}},{"type":"Feature","geometry":{"type":"Point","coordinates":[10.50047,63.42924]},"properties":{"cat":"camera","type":"Kamera","name":"Kamera","vendor":"Axis Communications AB","src":"nvdb"}},{"type":"Feature","geometry":{"type":"Point","coordinates":[10.50485,63.4281]},"properties":{"cat":"camera","type":"Kamera","name":"Kamera","vendor":"Axis Communications AB","src":"nvdb"}},{"type":"Feature","geometry":{"type":"Point","coordinates":[10.50254,63.42862]},"properties":{"cat":"camera","type":"Kamera","name":"Kamera","vendor":"Axis Communications AB","src":"nvdb"}},{"type":"Feature","geometry":{"type":"Point","coordinates":[10.50372,63.42833]},"properties":{"cat":"camera","type":"Kamera","name":"Kamera","vendor":"Axis Communications AB","src":"nvdb"}},{"type":"Feature","geometry":{"type":"Point","coordinates":[10.49949,63.42958]},"properties":{"cat":"camera","type":"Kamera","name":"Kamera","vendor":"Axis Communications AB","src":"nvdb"}},{"type":"Feature","geometry":{"type":"Point","coordinates":[10.51012,63.42719]},"properties":{"cat":"camera","type":"Kamera","name":"Kamera","vendor":"Axis Communications AB","src":"nvdb"}},{"type":"Feature","geometry":{"type":"Point","coordinates":[10.49941,63.42961]},"properties":{"cat":"camera","type":"Kamera","name":"Kamera","vendor":"Axis Communications AB","src":"nvdb"}},{"type":"Feature","geometry":{"type":"Point","coordinates":[10.5101,63.4272]},"properties":{"cat":"camera","type":"Kamera","name":"Kamera","vendor":"Axis Communications AB","src":"nvdb"}},{"type":"Feature","geometry":{"type":"Point","coordinates":[10.31869,63.38292]},"properties":{"cat":"camera","type":"Kamera","name":"Kamera","vendor":"FLIR","src":"nvdb"}},{"type":"Feature","geometry":{"type":"Point","coordinates":[10.31889,63.38295]},"properties":{"cat":"camera","type":"Kamera","name":"Kamera","vendor":"FLIR","src":"nvdb"}},{"type":"Feature","geometry":{"type":"Point","coordinates":[10.31848,63.3829]},"properties":{"cat":"camera","type":"Kamera","name":"Kamera","vendor":"FLIR","src":"nvdb"}},{"type":"Feature","geometry":{"type":"Point","coordinates":[10.42969,63.31334]},"properties":{"cat":"camera","type":"Kamera","name":"Kamera","vendor":"HIKVISION","src":"nvdb"}},{"type":"Feature","geometry":{"type":"Point","coordinates":[10.42392,63.31009]},"properties":{"cat":"camera","type":"Kamera","name":"Kamera","vendor":"HIKVISION","src":"nvdb"}},{"type":"Feature","geometry":{"type":"Point","coordinates":[10.42245,63.30329]},"properties":{"cat":"camera","type":"Kamera","name":"Kamera","vendor":"HIKVISION","src":"nvdb"}},{"type":"Feature","geometry":{"type":"Point","coordinates":[10.42194,63.30758]},"properties":{"cat":"camera","type":"Kamera","name":"Kamera","vendor":"HIKVISION","src":"nvdb"}},{"type":"Feature","geometry":{"type":"Point","coordinates":[10.42894,63.31264]},"properties":{"cat":"camera","type":"Kamera","name":"Kamera","vendor":"HIKVISION","src":"nvdb"}},{"type":"Feature","geometry":{"type":"Point","coordinates":[10.4225,63.30383]},"properties":{"cat":"camera","type":"Kamera","name":"Kamera","vendor":"HIKVISION","src":"nvdb"}},{"type":"Feature","geometry":{"type":"Point","coordinates":[10.49659,63.42861]},"properties":{"cat":"camera","type":"Kamera","name":"Kamera","vendor":"Flir","src":"nvdb"}},{"type":"Feature","geometry":{"type":"Point","coordinates":[10.49672,63.42857]},"properties":{"cat":"camera","type":"Kamera","name":"Kamera","vendor":"Flir","src":"nvdb"}},{"type":"Feature","geometry":{"type":"Point","coordinates":[10.49643,63.42866]},"properties":{"cat":"camera","type":"Kamera","name":"Kamera","vendor":"Flir","src":"nvdb"}},{"type":"Feature","geometry":{"type":"Point","coordinates":[10.46972,63.43743]},"properties":{"cat":"camera","type":"Kamera","name":"Kamera","vendor":"Flir","src":"nvdb"}},{"type":"Feature","geometry":{"type":"Point","coordinates":[10.36657,63.41473]},"properties":{"cat":"camera","type":"Kamera","name":"Kamera","vendor":"Flir","src":"nvdb"}},{"type":"Feature","geometry":{"type":"Point","coordinates":[10.45559,63.43677]},"properties":{"cat":"camera","type":"Kamera","name":"Kamera","vendor":"Flir","src":"nvdb"}},{"type":"Feature","geometry":{"type":"Point","coordinates":[10.35783,63.35313]},"properties":{"cat":"camera","type":"Kamera","name":"Kamera","vendor":"Flir","src":"nvdb"}},{"type":"Feature","geometry":{"type":"Point","coordinates":[10.39422,63.43198]},"properties":{"cat":"camera","type":"Kamera","name":"Kamera","vendor":"Flir","src":"nvdb"}},{"type":"Feature","geometry":{"type":"Point","coordinates":[10.35636,63.35125]},"properties":{"cat":"camera","type":"Kamera","name":"Kamera","vendor":"Flir","src":"nvdb"}},{"type":"Feature","geometry":{"type":"Point","coordinates":[10.40349,63.43312]},"properties":{"cat":"camera","type":"Kamera","name":"Kamera","vendor":"Flir","src":"nvdb"}},{"type":"Feature","geometry":{"type":"Point","coordinates":[10.40034,63.43332]},"properties":{"cat":"camera","type":"Kamera","name":"Kamera","vendor":"Flir","src":"nvdb"}},{"type":"Feature","geometry":{"type":"Point","coordinates":[10.40017,63.43475]},"properties":{"cat":"camera","type":"Kamera","name":"Kamera","vendor":"Flir","src":"nvdb"}},{"type":"Feature","geometry":{"type":"Point","coordinates":[10.35638,63.35125]},"properties":{"cat":"camera","type":"Kamera","name":"Kamera","vendor":"Flir","src":"nvdb"}},{"type":"Feature","geometry":{"type":"Point","coordinates":[10.3932,63.43317]},"properties":{"cat":"camera","type":"Kamera","name":"Kamera","vendor":"Flir","src":"nvdb"}},{"type":"Feature","geometry":{"type":"Point","coordinates":[10.40017,63.43477]},"properties":{"cat":"camera","type":"Kamera","name":"Kamera","vendor":"Flir","src":"nvdb"}},{"type":"Feature","geometry":{"type":"Point","coordinates":[10.40387,63.43304]},"properties":{"cat":"camera","type":"Kamera","name":"Kamera","vendor":"Flir","src":"nvdb"}},{"type":"Feature","geometry":{"type":"Point","coordinates":[10.39893,63.42152]},"properties":{"cat":"camera","type":"Kamera","name":"Kamera","vendor":"Flir","src":"nvdb"}},{"type":"Feature","geometry":{"type":"Point","coordinates":[10.31692,63.37906]},"properties":{"cat":"camera","type":"Kamera","name":"Kamera","vendor":"Flir","src":"nvdb"}},{"type":"Feature","geometry":{"type":"Point","coordinates":[10.40001,63.43592]},"properties":{"cat":"camera","type":"Kamera","name":"Kamera","vendor":"Flir","src":"nvdb"}},{"type":"Feature","geometry":{"type":"Point","coordinates":[10.39384,63.43318]},"properties":{"cat":"camera","type":"Kamera","name":"Kamera","vendor":"Flir","src":"nvdb"}},{"type":"Feature","geometry":{"type":"Point","coordinates":[10.36674,63.4148]},"properties":{"cat":"camera","type":"Kamera","name":"Kamera","vendor":"Flir","src":"nvdb"}},{"type":"Feature","geometry":{"type":"Point","coordinates":[10.45519,63.43692]},"properties":{"cat":"camera","type":"Kamera","name":"Kamera","vendor":"Flir","src":"nvdb"}},{"type":"Feature","geometry":{"type":"Point","coordinates":[10.36709,63.41493]},"properties":{"cat":"camera","type":"Kamera","name":"Kamera","vendor":"Flir","src":"nvdb"}},{"type":"Feature","geometry":{"type":"Point","coordinates":[10.3934,63.43318]},"properties":{"cat":"camera","type":"Kamera","name":"Kamera","vendor":"Flir","src":"nvdb"}},{"type":"Feature","geometry":{"type":"Point","coordinates":[10.40017,63.43475]},"properties":{"cat":"camera","type":"Kamera","name":"Kamera","vendor":"Flir","src":"nvdb"}},{"type":"Feature","geometry":{"type":"Point","coordinates":[10.45515,63.43693]},"properties":{"cat":"camera","type":"Kamera","name":"Kamera","vendor":"Flir","src":"nvdb"}},{"type":"Feature","geometry":{"type":"Point","coordinates":[10.4002,63.43463]},"properties":{"cat":"camera","type":"Kamera","name":"Kamera","vendor":"Flir","src":"nvdb"}},{"type":"Feature","geometry":{"type":"Point","coordinates":[10.39893,63.42153]},"properties":{"cat":"camera","type":"Kamera","name":"Kamera","vendor":"Flir","src":"nvdb"}},{"type":"Feature","geometry":{"type":"Point","coordinates":[10.43409,63.41179]},"properties":{"cat":"camera","type":"Kamera","name":"Kamera","vendor":"Flir","src":"nvdb"}},{"type":"Feature","geometry":{"type":"Point","coordinates":[10.40049,63.43332]},"properties":{"cat":"camera","type":"Kamera","name":"Kamera","vendor":"Flir","src":"nvdb"}},{"type":"Feature","geometry":{"type":"Point","coordinates":[10.46932,63.43752]},"properties":{"cat":"camera","type":"Kamera","name":"Kamera","vendor":"Flir","src":"nvdb"}},{"type":"Feature","geometry":{"type":"Point","coordinates":[10.40001,63.43575]},"properties":{"cat":"camera","type":"Kamera","name":"Kamera","vendor":"Flir","src":"nvdb"}},{"type":"Feature","geometry":{"type":"Point","coordinates":[10.31677,63.3792]},"properties":{"cat":"camera","type":"Kamera","name":"Kamera","vendor":"Flir","src":"nvdb"}},{"type":"Feature","geometry":{"type":"Point","coordinates":[10.40354,63.43311]},"properties":{"cat":"camera","type":"Kamera","name":"Kamera","vendor":"Flir","src":"nvdb"}},{"type":"Feature","geometry":{"type":"Point","coordinates":[10.37774,63.43028]},"properties":{"cat":"camera","type":"Kamera","name":"Kamera","vendor":"Flir","src":"nvdb"}},{"type":"Feature","geometry":{"type":"Point","coordinates":[10.36722,63.42812]},"properties":{"cat":"camera","type":"Kamera","name":"Kamera","vendor":"Flir","src":"nvdb"}},{"type":"Feature","geometry":{"type":"Point","coordinates":[10.3671,63.42829]},"properties":{"cat":"camera","type":"Kamera","name":"Kamera","vendor":"Flir","src":"nvdb"}},{"type":"Feature","geometry":{"type":"Point","coordinates":[10.37749,63.43028]},"properties":{"cat":"camera","type":"Kamera","name":"Kamera","vendor":"Flir","src":"nvdb"}},{"type":"Feature","geometry":{"type":"Point","coordinates":[10.38026,63.37192]},"properties":{"cat":"camera","type":"Kamera","name":"Kamera","vendor":"Axis","src":"nvdb"}},{"type":"Feature","geometry":{"type":"Point","coordinates":[10.37385,63.36238]},"properties":{"cat":"camera","type":"Kamera","name":"Kamera","vendor":null,"src":"nvdb"}},{"type":"Feature","geometry":{"type":"Point","coordinates":[10.39899,63.40862]},"properties":{"cat":"camera","type":"Kamera","name":"Kamera","vendor":null,"src":"nvdb"}},{"type":"Feature","geometry":{"type":"Point","coordinates":[10.40759,63.40246]},"properties":{"cat":"atk","type":"ATK-punkt","name":"Omkj\u00f8ringsvegen mot Narvik (P1)","vendor":null,"src":"nvdb"}},{"type":"Feature","geometry":{"type":"Point","coordinates":[10.40671,63.40229]},"properties":{"cat":"atk","type":"ATK-punkt","name":"Omkj\u00f8ringsvegen mot Oslo (P2)","vendor":null,"src":"nvdb"}},{"type":"Feature","geometry":{"type":"Point","coordinates":[10.59756,63.42237]},"properties":{"cat":"atk","type":"Streknings-ATK","name":"V\u00e6retunnelen mot Narvik (S1)","vendor":null,"src":"nvdb"}},{"type":"Feature","geometry":{"type":"Point","coordinates":[10.59756,63.42237]},"properties":{"cat":"atk","type":"Streknings-ATK","name":"V\u00e6retunnelen mot Trondheim (S2)","vendor":null,"src":"nvdb"}},{"type":"Feature","geometry":{"type":"Point","coordinates":[10.31576,63.38011]},"properties":{"cat":"camera","type":"Kamerastasjon","name":"Gran\u00e5sen","vendor":null,"src":"nvdb"}},{"type":"Feature","geometry":{"type":"Point","coordinates":[10.2979,63.3238]},"properties":{"cat":"camera","type":"Kamerastasjon","name":"KRONBORG (12-f\u00f8r-tk07)","vendor":null,"src":"nvdb"}},{"type":"Feature","geometry":{"type":"Point","coordinates":[10.30438,63.32371]},"properties":{"cat":"camera","type":"Kamerastasjon","name":"Klett d\u00f8gnhvileplass","vendor":null,"src":"nvdb"}},{"type":"Feature","geometry":{"type":"Point","coordinates":[10.45517,63.43369]},"properties":{"cat":"pilot","type":"Digital omr\u00e5desikring","name":"Strindheim skole","src":"ted"}},{"type":"Feature","geometry":{"type":"Point","coordinates":[10.36054,63.39903]},"properties":{"cat":"pilot","type":"Digital omr\u00e5desikring","name":"By\u00e5sen skole","src":"ted"}},{"type":"Feature","geometry":{"type":"Point","coordinates":[10.43023,63.43769]},"properties":{"cat":"pilot","type":"Digital omr\u00e5desikring","name":"Voldsminde barnehage","src":"ted"}},{"type":"Feature","geometry":{"type":"Point","coordinates":[10.39083,63.41804]},"properties":{"cat":"pilot","type":"Digital omr\u00e5desikring","name":"\u00d8ya barnehage","src":"ted"}}]}